[{"OBJECT_NAME":"STARLETTE","OBJECT_ID":"1975-010A","EPOCH":"2026-03-03T18:16:03.403200","MEAN_MOTION":13.82349044,"ECCENTRICITY":0.0205553,"INCLINATION":49.8226,"RA_OF_ASC_NODE":160.732,"ARG_OF_PERICENTER":74.7587,"MEAN_ANOMALY":287.5931,"EPHEMERIS_TYPE":0,"CLASSIFICATION_TYPE":"U","NORAD_CAT_ID":7646,"ELEMENT_SET_NO":999,"REV_AT_EPOCH":57995,"BSTAR":4.2899e-6,"MEAN_MOTION_DOT":-1.4e-6,"MEAN_MOTION_DDOT":0},{"OBJECT_NAME":"LAGEOS 1","OBJECT_ID":"1976-039A","EPOCH":"2026-03-03T09:11:25.740384","MEAN_MOTION":6.3866487,"ECCENTRICITY":0.00446593,"INCLINATION":109.8186,"RA_OF_ASC_NODE":143.1224,"ARG_OF_PERICENTER":324.9388,"MEAN_ANOMALY":51.6686,"EPHEMERIS_TYPE":0,"CLASSIFICATION_TYPE":"U","NORAD_CAT_ID":8820,"ELEMENT_SET_NO":999,"REV_AT_EPOCH":90638,"BSTAR":0,"MEAN_MOTION_DOT":-1.0e-8,"MEAN_MOTION_DDOT":0},{"OBJECT_NAME":"AJISAI (EGS)","OBJECT_ID":"1986-061A","EPOCH":"2026-03-03T18:45:21.283776","MEAN_MOTION":12.4451554,"ECCENTRICITY":0.0011252,"INCLINATION":50.0081,"RA_OF_ASC_NODE":111.516,"ARG_OF_PERICENTER":271.8255,"MEAN_ANOMALY":196.5801,"EPHEMERIS_TYPE":0,"CLASSIFICATION_TYPE":"U","NORAD_CAT_ID":16908,"ELEMENT_SET_NO":999,"REV_AT_EPOCH":46726,"BSTAR":0.00016477,"MEAN_MOTION_DOT":-7.4e-7,"MEAN_MOTION_DDOT":0},{"OBJECT_NAME":"COSMOS 1989 (ETALON 1)","OBJECT_ID":"1989-001C","EPOCH":"2026-03-03T14:49:25.857696","MEAN_MOTION":2.13156033,"ECCENTRICITY":0.0023403,"INCLINATION":64.8836,"RA_OF_ASC_NODE":75.8047,"ARG_OF_PERICENTER":217.5732,"MEAN_ANOMALY":97.6631,"EPHEMERIS_TYPE":0,"CLASSIFICATION_TYPE":"U","NORAD_CAT_ID":19751,"ELEMENT_SET_NO":999,"REV_AT_EPOCH":28911,"BSTAR":0,"MEAN_MOTION_DOT":1.9e-7,"MEAN_MOTION_DDOT":0},{"OBJECT_NAME":"COSMOS 2024 (ETALON 2)","OBJECT_ID":"1989-039C","EPOCH":"2026-03-03T17:18:38.505600","MEAN_MOTION":2.13204539,"ECCENTRICITY":0.0020465,"INCLINATION":64.998,"RA_OF_ASC_NODE":314.1711,"ARG_OF_PERICENTER":213.4116,"MEAN_ANOMALY":320.6552,"EPHEMERIS_TYPE":0,"CLASSIFICATION_TYPE":"U","NORAD_CAT_ID":20026,"ELEMENT_SET_NO":999,"REV_AT_EPOCH":28625,"BSTAR":0,"MEAN_MOTION_DOT":-4.4e-7,"MEAN_MOTION_DDOT":0},{"OBJECT_NAME":"LAGEOS 2","OBJECT_ID":"1992-070B","EPOCH":"2026-03-03T09:34:22.738656","MEAN_MOTION":6.4729332,"ECCENTRICITY":0.01377783,"INCLINATION":52.6798,"RA_OF_ASC_NODE":333.5172,"ARG_OF_PERICENTER":141.0738,"MEAN_ANOMALY":348.1811,"EPHEMERIS_TYPE":0,"CLASSIFICATION_TYPE":"U","NORAD_CAT_ID":22195,"ELEMENT_SET_NO":999,"REV_AT_EPOCH":78857,"BSTAR":0,"MEAN_MOTION_DOT":-9.0e-8,"MEAN_MOTION_DDOT":0},{"OBJECT_NAME":"STELLA","OBJECT_ID":"1993-061B","EPOCH":"2026-03-03T18:46:01.894368","MEAN_MOTION":14.27467335,"ECCENTRICITY":0.0006417,"INCLINATION":98.7854,"RA_OF_ASC_NODE":126.5987,"ARG_OF_PERICENTER":174.1852,"MEAN_ANOMALY":303.7088,"EPHEMERIS_TYPE":0,"CLASSIFICATION_TYPE":"U","NORAD_CAT_ID":22824,"ELEMENT_SET_NO":999,"REV_AT_EPOCH":68973,"BSTAR":1.2172e-5,"MEAN_MOTION_DOT":-1.5e-7,"MEAN_MOTION_DDOT":0},{"OBJECT_NAME":"LARETS","OBJECT_ID":"2003-042F","EPOCH":"2026-03-03T18:48:07.741152","MEAN_MOTION":14.63846771,"ECCENTRICITY":0.0012446,"INCLINATION":98.4005,"RA_OF_ASC_NODE":222.8485,"ARG_OF_PERICENTER":10.9654,"MEAN_ANOMALY":349.1817,"EPHEMERIS_TYPE":0,"CLASSIFICATION_TYPE":"U","NORAD_CAT_ID":27944,"ELEMENT_SET_NO":999,"REV_AT_EPOCH":19794,"BSTAR":3.1946e-5,"MEAN_MOTION_DOT":1.16e-6,"MEAN_MOTION_DDOT":0},{"OBJECT_NAME":"LARES","OBJECT_ID":"2012-006A","EPOCH":"2026-03-03T16:27:54.527328","MEAN_MOTION":12.54932214,"ECCENTRICITY":0.0007581,"INCLINATION":69.4891,"RA_OF_ASC_NODE":112.4549,"ARG_OF_PERICENTER":156.8243,"MEAN_ANOMALY":203.3126,"EPHEMERIS_TYPE":0,"CLASSIFICATION_TYPE":"U","NORAD_CAT_ID":38077,"ELEMENT_SET_NO":999,"REV_AT_EPOCH":64383,"BSTAR":0.00014982,"MEAN_MOTION_DOT":-1.4e-7,"MEAN_MOTION_DDOT":0},{"OBJECT_NAME":"LARES-2","OBJECT_ID":"2022-080A","EPOCH":"2026-02-20T17:16:46.407648","MEAN_MOTION":6.38965205,"ECCENTRICITY":0.00051588,"INCLINATION":70.178,"RA_OF_ASC_NODE":345.2672,"ARG_OF_PERICENTER":0.959,"MEAN_ANOMALY":359.1035,"EPHEMERIS_TYPE":0,"CLASSIFICATION_TYPE":"U","NORAD_CAT_ID":53105,"ELEMENT_SET_NO":999,"REV_AT_EPOCH":8422,"BSTAR":0,"MEAN_MOTION_DOT":-1.9e-7,"MEAN_MOTION_DDOT":0}]
