STARLETTE               
1 07646U 75010A   26062.76115050 -.00000140  00000+0  42899-5 0  9999
2 07646  49.8226 160.7320 0205553  74.7587 287.5931 13.82349044579951
LAGEOS 1                
1 08820U 76039A   26062.38293681 -.00000001  00000+0  00000+0 0  9999
2 08820 109.8186 143.1224 0044659 324.9388  51.6686  6.38664870906381
AJISAI (EGS)            
1 16908U 86061A   26062.78149634 -.00000074  00000+0  16477-3 0  9992
2 16908  50.0081 111.5160 0011252 271.8255 196.5801 12.44515540467262
COSMOS 1989 (ETALON 1)  
1 19751U 89001C   26062.61766039  .00000019  00000+0  00000+0 0  9993
2 19751  64.8836  75.8047 0023403 217.5732  97.6631  2.13156033289117
COSMOS 2024 (ETALON 2)  
1 20026U 89039C   26062.72127900 -.00000044  00000+0  00000+0 0  9990
2 20026  64.9980 314.1711 0020465 213.4116 320.6552  2.13204539286256
LAGEOS 2                
1 22195U 92070B   26062.39887429 -.00000009  00000+0  00000+0 0  9991
2 22195  52.6798 333.5172 0137778 141.0738 348.1811  6.47293320788576
STELLA                  
1 22824U 93061B   26062.78196637 -.00000015  00000+0  12172-4 0  9993
2 22824  98.7854 126.5987 0006417 174.1852 303.7088 14.27467335689739
LARETS                  
1 27944U 03042F   26062.78342293  .00000116  00000+0  31946-4 0  9993
2 27944  98.4005 222.8485 0012446  10.9654 349.1817 14.63846771197947
LARES                   
1 38077U 12006A   26062.68604777 -.00000014  00000+0  14982-3 0  9997
2 38077  69.4891 112.4549 0007581 156.8243 203.3126 12.54932214643834
LARES-2                 
1 53105U 22080A   26051.71998157 -.00000019  00000+0  00000+0 0  9996
2 53105  70.1780 345.2672 0005158   0.9590 359.1035  6.38965205 84226
